COMMENT,ORIGINATOR,NORAD_CAT_ID,OBJECT_NAME,OBJECT_TYPE,CLASSIFICATION_TYPE,INTLDES,EPOCH,EPOCH_MICROSECONDS,MEAN_MOTION,ECCENTRICITY,INCLINATION,RA_OF_ASC_NODE,ARG_OF_PERICENTER,MEAN_ANOMALY,EPHEMERIS_TYPE,ELEMENT_SET_NO,REV_AT_EPOCH,BSTAR,MEAN_MOTION_DOT,MEAN_MOTION_DDOT,FILE,TLE_LINE0,TLE_LINE1,TLE_LINE2,OBJECT_ID,OBJECT_NUMBER,SEMIMAJOR_AXIS,PERIOD,APOGEE,PERIGEE
"GENERATED VIA SPACETRACK.ORG API","JSPOC","40144","TIANTUO 2","PAYLOAD","U","14053B","2016-01-14 03:53:04","996032","15.31398581","0.0011714","97.3663","94.6468","333.1222","110.3958","0","999","7535","9.4823e-05","2.802e-05","0","1980006","0 TIANTUO 2","1 40144U 14053B   16014.16186338  .00002802  00000-0  94823-4 0  9996","2 40144  97.3663  94.6468 0011714 333.1222 110.3958 15.31398581 75357","2014-053B","40144","6849.775","94.031","479.664","463.616"
"GENERATED VIA SPACETRACK.ORG API","JSPOC","36797","AISSAT 1","PAYLOAD","U","10035C","2016-01-14 03:53:19","422240","14.85365669","0.0010142","98.0142","117.8442","250.9966","109.0149","0","999","29809","9.8771e-05","7.94e-06","0","1980028","0 AISSAT 1","1 36797U 10035C   16014.16203035  .00000794  00000-0  98771-4 0  9999","2 36797  98.0142 117.8442 0010142 250.9966 109.0149 14.85365669298095","2010-035C","36797","6990.575","96.945","619.530","605.350"
"GENERATED VIA SPACETRACK.ORG API","JSPOC","13353","COSMOS 1386","PAYLOAD","U","82069A","2016-01-14 03:53:25","6272","13.7633326","0.0037403","82.9615","44.5601","277.2128","143.7739","0","999","68352","1.7601e-05","3.2e-07","0","1980031","0 COSMOS 1386","1 13353U 82069A   16014.16209498  .00000032  00000-0  17601-4 0  9995","2 13353  82.9615  44.5601 0037403 277.2128 143.7739 13.76333260683526","1982-069A","13353","7355.058","104.625","1004.433","949.412"
"GENERATED VIA SPACETRACK.ORG API","JSPOC","40258","LUCH (OLYMP)","PAYLOAD","U","14058A","2016-01-14 03:53:32","925696","1.00269301","0.0001098","0.038","248.9952","335.8339","305.5091","0","999","476","0","-1.7e-07","0","1979994","0 LUCH (OLYMP)","1 40258U 14058A   16014.16218664 -.00000017  00000-0  00000+0 0  9991","2 40258   0.0380 248.9952 0001098 335.8339 305.5091  1.00269301  4765","2014-058A","40258","42165.428","1436.132","35791.923","35782.663"
"GENERATED VIA SPACETRACK.ORG API","JSPOC","40258","LUCH (OLYMP)","PAYLOAD","U","14058A","2016-01-14 03:53:32","925696","1.00269313","0.00011","0.0435","240.546","344.215","305.5772","0","999","476","0","-1.7e-07","0","1980064","0 LUCH (OLYMP)","1 40258U 14058A   16014.16218664 -.00000017  00000-0  00000+0 0  9991","2 40258   0.0435 240.5460 0001100 344.2150 305.5772  1.00269313  4766","2014-058A","40258","42165.424","1436.132","35791.928","35782.651"
"GENERATED VIA SPACETRACK.ORG API","JSPOC","25490","TAURUS R/B","ROCKET BODY","U","98055B","2016-01-14 03:53:43","474272","14.68457643","0.0015541","85.0676","26.8099","173.5086","186.6331","0","999","92621","3.7341e-05","2.41e-06","0","1980015","0 TAURUS R/B","1 25490U 98055B   16014.16230873  .00000241  00000-0  37341-4 0  9998","2 25490  85.0676  26.8099 0015541 173.5086 186.6331 14.68457643926210","1998-055B","25490","7044.133","98.062","676.945","655.050"
"GENERATED VIA SPACETRACK.ORG API","JSPOC","19689","ARIANE 44LP R/B","ROCKET BODY","U","88109C","2016-01-14 03:53:46","347936","2.28742846","0.7193397","7.2691","325.6366","283.2062","11.7876","0","999","19072","0.00020585","-5e-07","0","1980174","0 ARIANE 44LP R/B","1 19689U 88109C   16014.16234199 -.00000050  00000-0  20585-3 0  9995","2 19689   7.2691 325.6366 7193397 283.2062  11.7876  2.28742846190725","1988-109C","19689","24331.571","629.527","35456.101","450.771"
"GENERATED VIA SPACETRACK.ORG API","JSPOC","40076","TDS 1","PAYLOAD","U","14037H","2016-01-14 03:53:50","280864","14.81104186","0.0005195","98.3336","99.1883","314.1477","45.9314","0","999","8204","4.3586e-05","2.81e-06","0","1980074","0 TDS 1","1 40076U 14037H   16014.16238751  .00000281  00000-0  43586-4 0  9998","2 40076  98.3336  99.1883 0005195 314.1477  45.9314 14.81104186 82040","2014-037H","40076","7003.977","97.224","629.481","622.204"
"GENERATED VIA SPACETRACK.ORG API","JSPOC","33412","SKYMED 3","PAYLOAD","U","08054A","2016-01-14 03:54:14","451264","14.82163242","0.0001287","97.8777","199.9852","82.1707","277.9624","0","999","39062","6.2028e-05","4.42e-06","0","1980106","0 SKYMED 3","1 33412U 08054A   16014.16266726  .00000442  00000-0  62028-4 0  9990","2 33412  97.8777 199.9852 0001287  82.1707 277.9624 14.82163242390626","2008-054A","33412","7000.641","97.155","623.407","621.605"
"GENERATED VIA SPACETRACK.ORG API","JSPOC","15085","COSMOS 1579","PAYLOAD","U","84069A","2016-01-14 03:54:26","686368","13.86031168","0.0062945","65.0492","238.6775","259.5713","248.272","0","999","59838","1.6274e-05","-7e-07","0","1980109","0 COSMOS 1579","1 15085U 84069A   16014.16280887 -.00000070  00000-0  16274-4 0  9990","2 15085  65.0492 238.6775 0062945 259.5713 248.2720 13.86031168598388","1984-069A","15085","7320.709","103.893","988.654","896.494"
"GENERATED VIA SPACETRACK.ORG API","JSPOC","25342","IRIDIUM 70","PAYLOAD","U","98032A","2016-01-14 03:55:07","174272","14.34217851","0.0002028","86.3965","81.6365","96.1037","318.164","0","999","92456","8.6987e-05","2.63e-06","0","1980033","0 IRIDIUM 70","1 25342U 98032A   16014.16327748  .00000263  00000-0  86987-4 0  9991","2 25342  86.3965  81.6365 0002028  96.1037 318.1640 14.34217851924567","1998-032A","25342","7155.803","100.403","779.120","776.217"
"GENERATED VIA SPACETRACK.ORG API","JSPOC","26069","COSMOS 2369","PAYLOAD","U","00006A","2016-01-14 03:55:30","856512","14.13314572","0.0012585","70.9941","8.4219","293.247","66.7326","0","999","82264","0.00020682","3.41e-06","0","1980067","0 COSMOS 2369","1 26069U 00006A   16014.16355158  .00000341  00000-0  20682-3 0  9994","2 26069  70.9941   8.4219 0012585 293.2470  66.7326 14.13314572822640","2000-006A","26069","7226.188","101.888","857.147","838.959"
"GENERATED VIA SPACETRACK.ORG API","JSPOC","39151","NEE 01 PEGASUS","PAYLOAD","U","13018B","2016-01-14 03:55:41","8512","14.79267536","0.0016072","98.0054","102.523","293.7569","66.1957","0","999","14665","0.0001046","7.26e-06","0","1980113","0 NEE 01 PEGASUS","1 39151U 13018B   16014.16366908  .00000726  00000-0  10460-3 0  9992","2 39151  98.0054 102.5230 0016072 293.7569  66.1957 14.79267536146653","2013-018B","39151","7009.774","97.345","642.905","620.373"
"GENERATED VIA SPACETRACK.ORG API","JSPOC","6237","DELTA 1 R/B","ROCKET BODY","U","72082C","2016-01-14 03:56:20","903712","13.18521049","0.0362134","102.8","61.1661","23.0977","24.7525","0","999","8091","3.6572e-05","-4.1e-07","0","1980033","0 DELTA 1 R/B","1 06237U 72082C   16014.16413083 -.00000041  00000-0  36572-4 0  9998","2 06237 102.8000  61.1661 0362134  23.0977  24.7525 13.18521049 80916","1972-082C","6237","7568.511","109.213","1464.457","916.294"
"GENERATED VIA SPACETRACK.ORG API","JSPOC","40013","DEIMOS 2","PAYLOAD","U","14033D","2016-01-14 03:56:23","111232","14.84463365","8.83e-05","97.9228","276.6956","126.7165","233.4149","0","999","8504","9.1568e-05","7.17e-06","0","1980089","0 DEIMOS 2","1 40013U 14033D   16014.16415638  .00000717  00000-0  91568-4 0  9993","2 40013  97.9228 276.6956 0000883 126.7165 233.4149 14.84463365 85042","2014-033D","40013","6993.407","97.004","615.890","614.655"
"GENERATED VIA SPACETRACK.ORG API","JSPOC","19070","OSCAR 23","PAYLOAD","U","88033A","2016-01-14 03:56:29","682816","13.27372689","0.0190518","90.3519","255.405","165.4784","311.0154","0","999","34244","8.2151e-05","4.9e-07","0","1980016","0 OSCAR 23","1 19070U 88033A   16014.16423244  .00000049  00000-0  82151-4 0  9991","2 19070  90.3519 255.4050 0190518 165.4784 311.0154 13.27372689342446","1988-033A","19070","7534.826","108.484","1300.243","1013.139"
"GENERATED VIA SPACETRACK.ORG API","JSPOC","22561","START 1","PAYLOAD","U","93014A","2016-01-14 03:56:30","475104","14.21690772","0.019539","75.7617","8.7605","219.1952","218.3616","0","999","18285","1.7539e-05","3.1e-07","0","1980073","0 START 1","1 22561U 93014A   16014.16424161  .00000031  00000-0  17539-4 0  9993","2 22561  75.7617   8.7605 0195390 219.1952 218.3616 14.21690772182853","1993-014A","22561","7197.777","101.287","960.279","679.005"
"GENERATED VIA SPACETRACK.ORG API","JSPOC","37165","YAOGAN 11","PAYLOAD","U","10047A","2016-01-14 03:56:40","385184","14.76575961","0.0037505","98.4071","51.5725","158.5649","201.7141","0","999","28593","5.9914e-05","3.65e-06","0","1980109","0 YAOGAN 11","1 37165U 10047A   16014.16435631  .00000365  00000-0  59914-4 0  9991","2 37165  98.4071  51.5725 0037505 158.5649 201.7141 14.76575961285930","2010-047A","37165","7018.290","97.522","666.477","613.832"
"GENERATED VIA SPACETRACK.ORG API","JSPOC","30773","MIDSTAR 1","PAYLOAD","U","07006B","2016-01-14 03:57:03","540384","15.42549908","0.0005943","46.0661","43.7592","305.6618","162.5154","0","999","49458","0.00012608","5.224e-05","0","1980035","0 MIDSTAR 1","1 30773U 07006B   16014.16462431  .00005224  00000-0  12608-3 0  9995","2 30773  46.0661  43.7592 0005943 305.6618 162.5154 15.42549908494586","2007-006B","30773","6816.723","93.351","442.639","434.537"
"GENERATED VIA SPACETRACK.ORG API","JSPOC","40286","SJ-11-08","PAYLOAD","U","14066A","2016-01-14 03:57:11","765664","14.6082333","0.0010671","98.2544","135.7158","263.5652","96.4346","0","999","6479","5.8747e-05","2.39e-06","0","1980093","0 SJ-11-08","1 40286U 14066A   16014.16471951  .00000239  00000-0  58747-4 0  9992","2 40286  98.2544 135.7158 0010671 263.5652  96.4346 14.60823330 64796","2014-066A","40286","7068.653","98.574","698.061","682.975"
